STARLINK-4207           
1 52871U 22062AT  24333.96281319 -.00001107  00000+0 -51468-4 0  9997
2 52871  53.2158 304.8468 0001688 109.0930 251.0245 15.08840107136246
STARLINK-4213           
1 52872U 22062AU  24333.63622636 -.00003431  00000+0 -19752-3 0  9994
2 52872  53.2159 306.2831 0001119  80.5932 279.5187 15.08855369135708
STARLINK-4211           
1 52873U 22062AV  24333.95544602  .00000841  00000+0  70948-4 0  9991
2 52873  53.2161 304.8849 0002629 122.0229 238.1018 15.08836255136240
STARLINK-4210           
1 52874U 22062AW  24333.90024791  .00001691  00000+0  12436-3 0  9990
2 52874  53.2180 305.1269 0002098  84.7615 275.3616 15.08835375135748
STARLINK-4193           
1 52875U 22062AX  24333.95176800  .00000129  00000+0  26212-4 0  9998
2 52875  53.2173 304.8983 0001331 101.3703 258.7438 15.08831537136242
STARLINK-4200           
1 52876U 22062AY  24333.95912718 -.00000705  00000+0 -26210-4 0  9995
2 52876  53.2163 304.8645 0001480  94.4607 265.6554 15.08831133136245
STARLINK-4214           
1 52877U 22062AZ  24334.19095250  .00017807  00000+0  11328-2 0  9997
2 52877  53.2156 303.8317 0001632 123.8873 236.2275 15.08880997136284
STARLINK-4171           
1 52878U 22062BA  24333.21944480  .00000881  00000+0  73461-4 0  9990
2 52878  53.2171 308.1839 0001545  96.9976 263.1192 15.08841122136134
STARLINK-4139           
1 52879U 22062BB  24334.17992386  .00000816  00000+0  69332-4 0  9995
2 52879  53.2156 303.8718 0001232  88.4504 271.6629 15.08838697136280
STARLINK-4186           
1 52880U 22062BC  24333.65368703  .00004385  00000+0  29341-3 0  9999
2 52880  53.2188 306.2267 0002030  77.1649 282.9570 15.08840238135716
STARLINK-4181           
1 52882U 22062BE  24334.20195151  .00000968  00000+0  78912-4 0  9990
2 52882  53.2185 303.3505 0001344 105.5893 254.5247 15.08840686136299
GLOBALSTAR M087         
1 52888U 22064A   24334.11002289 -.00000048  00000+0  16446-3 0  9990
2 52888  51.9781 354.0143 0035385  13.3178 346.8646 13.30671240119589
PVSAT                   
1 52894U 22065A   24333.84156669  .00001520  00000+0  33486-3 0  9997
2 52894  98.1476 110.0081 0009037 346.9996  13.0969 14.58798798129906
KSLV-II DUMMY           
1 52895U 22065B   24333.85170935  .00000311  00000+0  76721-4 0  9998
2 52895  98.1516 110.7081 0008293   5.2268 354.9017 14.58498552129949
STEP CUBE LAB-II        
1 52897U 22065D   24334.09966066  .00003280  00000+0  67088-3 0  9998
2 52897  98.1431 112.1284 0008713   2.8854 357.2396 14.61461448128908
RANDEV                  
1 52898U 22065E   24334.09184242  .00003668  00000+0  74513-3 0  9998
2 52898  98.1422 112.2573 0008011   4.9748 355.1532 14.61707070128630
SNUGLITE-II             
1 52899U 22065F   24334.13259393  .00004150  00000+0  83422-3 0  9990
2 52899  98.1413 112.4581 0007562   4.8544 355.2729 14.62123048128351
MIMAN                   
1 52900U 22065G   24333.87164702  .00002420  00000+0  50811-3 0  9996
2 52900  98.1452 111.4363 0007607   2.5281 357.5957 14.60501557127885
CMS-02 (GSAT 24)        
1 52903U 22067A   24333.88313250 -.00000138  00000+0  00000+0 0  9992
2 52903   0.0461 266.3694 0004592 349.5497 213.3207  1.00272612  8949
MEASAT 3D               
1 52904U 22067B   24333.87063517 -.00000213  00000+0  00000+0 0  9994
2 52904   0.0330 322.4149 0002903 315.8808 194.8824  1.00267431  8985
YAOGAN-35 02A           
1 52907U 22068A   24333.78014654  .00026106  00000+0  10901-2 0  9998
2 52907  34.9920  82.5960 0008668 351.2429   8.8133 15.22697273135765
YAOGAN-35 02B           
1 52908U 22068B   24333.77797929  .00036971  00000+0  15325-2 0  9997
2 52908  34.9968  82.6392 0003647  19.9787 340.1070 15.22908492135732
GAOFEN-12 03            
1 52912U 22069A   24334.14968968  .00004786  00000+0  62997-3 0  9995
2 52912  97.8905 222.7458 0005262   5.6231 354.5039 14.80615680131026
SES-22                  
1 52933U 22071A   24333.66247711  .00000132  00000+0  00000+0 0  9997
2 52933   0.0140 318.2462 0002807 300.3218 268.9870  1.00272366  1850
DS-EO                   
1 52935U 22072A   24334.04934247  .00012000  00000+0  72649-3 0  9999
2 52935   9.9949  71.8385 0004686  13.3300 346.7038 15.07043047132909
NEUSAR                  
1 52937U 22072C   24333.69724257  .00047074  00000+0  16733-2 0  9999
2 52937   9.9835  22.2595 0000539 212.3702 147.6481 15.26976671133335
WFOV (USA 332)          
1 52940U 22073A   24333.87653674 -.00000335  00000+0  00000+0 0  9995
2 52940   2.2509  85.9283 0001283  95.3640 321.8021  1.00268718  8701
COSMOS 2557 [GLONASS-K] 
1 52984U 22075A   24333.18032955 -.00000044  00000+0  00000+0 0  9999
2 52984  64.6037 334.3581 0014113 277.3650  82.5061  2.13102129 18656
STARLINK-4260           
1 52986U 22076A   24334.11000756  .00000286  00000+0  36076-4 0  9994
2 52986  53.2159  24.1885 0001654  81.4895 278.6284 15.08839133133023
STARLINK-4259           
1 52987U 22076B   24333.48716724  .00001804  00000+0  13141-3 0  9997
2 52987  53.2188  36.9843 0001385  97.1356 262.9794 15.08837358132329
STARLINK-4291           
1 52988U 22076C   24334.10632436  .00000856  00000+0  71900-4 0  9999
2 52988  53.2129  24.2074 0001672  96.0319 264.0864 15.08836970133025
