OBJECT_NAME,OBJECT_ID,EPOCH,MEAN_MOTION,ECCENTRICITY,INCLINATION,RA_OF_ASC_NODE,ARG_OF_PERICENTER,MEAN_ANOMALY,EPHEMERIS_TYPE,CLASSIFICATION_TYPE,NORAD_CAT_ID,ELEMENT_SET_NO,REV_AT_EPOCH,BSTAR,MEAN_MOTION_DOT,MEAN_MOTION_DDOT
STARLINK-4207,2022-062AT,2024-11-28T23:06:27.059616,15.08840107,.0001688,53.2158,304.8468,109.0930,251.0245,0,U,52871,999,13624,-.51468E-4,-.1107E-4,0
STARLINK-4213,2022-062AU,2024-11-28T15:16:09.957504,15.08855369,.0001119,53.2159,306.2831,80.5932,279.5187,0,U,52872,999,13570,-.19752E-3,-.3431E-4,0
STARLINK-4211,2022-062AV,2024-11-28T22:55:50.536128,15.08836255,.0002629,53.2161,304.8849,122.0229,238.1018,0,U,52873,999,13624,.70948E-4,.841E-5,0
STARLINK-4210,2022-062AW,2024-11-28T21:36:21.419424,15.08835375,.0002098,53.2180,305.1269,84.7615,275.3616,0,U,52874,999,13574,.12436E-3,.1691E-4,0
STARLINK-4193,2022-062AX,2024-11-28T22:50:32.755200,15.08831537,.0001331,53.2173,304.8983,101.3703,258.7438,0,U,52875,999,13624,.26212E-4,.129E-5,0
STARLINK-4200,2022-062AY,2024-11-28T23:01:08.588352,15.08831133,.000148,53.2163,304.8645,94.4607,265.6554,0,U,52876,999,13624,-.2621E-4,-.705E-5,0
STARLINK-4214,2022-062AZ,2024-11-29T04:34:58.296000,15.08880997,.0001632,53.2156,303.8317,123.8873,236.2275,0,U,52877,999,13628,.11328E-2,.17807E-3,0
STARLINK-4171,2022-062BA,2024-11-28T05:16:00.030720,15.08841122,.0001545,53.2171,308.1839,96.9976,263.1192,0,U,52878,999,13613,.73461E-4,.881E-5,0
STARLINK-4139,2022-062BB,2024-11-29T04:19:05.421504,15.08838697,.0001232,53.2156,303.8718,88.4504,271.6629,0,U,52879,999,13628,.69332E-4,.816E-5,0
STARLINK-4186,2022-062BC,2024-11-28T15:41:18.559392,15.08840238,.000203,53.2188,306.2267,77.1649,282.9570,0,U,52880,999,13571,.29341E-3,.4385E-4,0
STARLINK-4181,2022-062BE,2024-11-29T04:50:48.610464,15.08840686,.0001344,53.2185,303.3505,105.5893,254.5247,0,U,52882,999,13629,.78912E-4,.968E-5,0
GLOBALSTAR M087,2022-064A,2024-11-29T02:38:25.977696,13.30671240,.0035385,51.9781,354.0143,13.3178,346.8646,0,U,52888,999,11958,.16446E-3,-.48E-6,0
PVSAT,2022-065A,2024-11-28T20:11:51.362016,14.58798798,.0009037,98.1476,110.0081,346.9996,13.0969,0,U,52894,999,12990,.33486E-3,.152E-4,0
KSLV-II DUMMY,2022-065B,2024-11-28T20:26:27.687840,14.58498552,.0008293,98.1516,110.7081,5.2268,354.9017,0,U,52895,999,12994,.76721E-4,.311E-5,0
STEP CUBE LAB-II,2022-065D,2024-11-29T02:23:30.681024,14.61461448,.0008713,98.1431,112.1284,2.8854,357.2396,0,U,52897,999,12890,.67088E-3,.328E-4,0
RANDEV,2022-065E,2024-11-29T02:12:15.185088,14.61707070,.0008011,98.1422,112.2573,4.9748,355.1532,0,U,52898,999,12863,.74513E-3,.3668E-4,0
SNUGLITE-II,2022-065F,2024-11-29T03:10:56.115552,14.62123048,.0007562,98.1413,112.4581,4.8544,355.2729,0,U,52899,999,12835,.83422E-3,.415E-4,0
MIMAN,2022-065G,2024-11-28T20:55:10.302528,14.60501557,.0007607,98.1452,111.4363,2.5281,357.5957,0,U,52900,999,12788,.50811E-3,.242E-4,0
CMS-02 (GSAT 24),2022-067A,2024-11-28T21:11:42.648000,1.00272612,.0004592,0.0461,266.3694,349.5497,213.3207,0,U,52903,999,894,0,-.138E-5,0
MEASAT 3D,2022-067B,2024-11-28T20:53:42.878688,1.00267431,.0002903,0.0330,322.4149,315.8808,194.8824,0,U,52904,999,898,0,-.213E-5,0
YAOGAN-35 02A,2022-068A,2024-11-28T18:43:24.661056,15.22697273,.0008668,34.9920,82.5960,351.2429,8.8133,0,U,52907,999,13576,.10901E-2,.26106E-3,0
YAOGAN-35 02B,2022-068B,2024-11-28T18:40:17.410656,15.22908492,.0003647,34.9968,82.6392,19.9787,340.1070,0,U,52908,999,13573,.15325E-2,.36971E-3,0
GAOFEN-12 03,2022-069A,2024-11-29T03:35:33.188352,14.80615680,.0005262,97.8905,222.7458,5.6231,354.5039,0,U,52912,999,13102,.62997E-3,.4786E-4,0
SES-22,2022-071A,2024-11-28T15:53:58.022304,1.00272366,.0002807,0.0140,318.2462,300.3218,268.9870,0,U,52933,999,185,0,.132E-5,0
DS-EO,2022-072A,2024-11-29T01:11:03.189408,15.07043047,.0004686,9.9949,71.8385,13.3300,346.7038,0,U,52935,999,13290,.72649E-3,.12E-3,0
NEUSAR,2022-072C,2024-11-28T16:44:01.758048,15.26976671,.0000539,9.9835,22.2595,212.3702,147.6481,0,U,52937,999,13333,.16733E-2,.47074E-3,0
WFOV (USA 332),2022-073A,2024-11-28T21:02:12.774336,1.00268718,.0001283,2.2509,85.9283,95.3640,321.8021,0,U,52940,999,870,0,-.335E-5,0
COSMOS 2557 [GLONASS-K],2022-075A,2024-11-28T04:19:40.473120,2.13102129,.0014113,64.6037,334.3581,277.3650,82.5061,0,U,52984,999,1865,0,-.44E-6,0
STARLINK-4260,2022-076A,2024-11-29T02:38:24.653184,15.08839133,.0001654,53.2159,24.1885,81.4895,278.6284,0,U,52986,999,13302,.36076E-4,.286E-5,0
STARLINK-4259,2022-076B,2024-11-28T11:41:31.249536,15.08837358,.0001385,53.2188,36.9843,97.1356,262.9794,0,U,52987,999,13232,.13141E-3,.1804E-4,0
STARLINK-4291,2022-076C,2024-11-29T02:33:06.424704,15.08836970,.0001672,53.2129,24.2074,96.0319,264.0864,0,U,52988,999,13302,.719E-4,.856E-5,0
